IRIDIUM 171             
1 43929U 19002H   24205.45295038  .00000459  00000+0  15683-3 0  9991
2 43929  86.3967 283.7105 0002112  91.6745 268.4693 14.34217568289527
IRIDIUM 170             
1 43930U 19002J   24205.28285181  .00002544  00000+0  39948-3 0  9999
2 43930  86.6089 283.5958 0002323  92.6883 267.4600 14.72259477297162
IRIDIUM 167             
1 43931U 19002K   24205.51637746  .00000207  00000+0  66877-4 0  9990
2 43931  86.3961 283.4710 0002257  91.6588 268.4867 14.34217055289533
IRIDIUM 181             
1 56726U 23068S   24205.63692167  .00001018  00000+0  29494-3 0  9998
2 56726  86.8666 338.9251 0002329  88.2091 271.9378 14.43584394 62395
IRIDIUM 177             
1 56727U 23068T   24205.66247725  .00005078  00000+0  66482-3 0  9996
2 56727  86.1987 298.0434 0002339  90.3153 269.8336 14.80217526 63772
IRIDIUM 174             
1 56728U 23068U   24205.52184850  .00001306  00000+0  16844-3 0  9998
2 56728  86.1989 298.2158 0002073  88.9525 271.1933 14.80234086 63758
IRIDIUM 178             
1 56729U 23068V   24205.78683315  .00003828  00000+0  50009-3 0  9999
2 56729  86.5806 317.2911 0002657  95.0849 265.0676 14.80247049 63799
IRIDIUM 179             
1 56730U 23068W   24205.78138584  .00001947  00000+0  25288-3 0  9995
2 56730  86.6815 321.8889 0002226  93.1718 266.9759 14.80216986 63791
